NORAD_CAT_ID,OBJECT_NAME,OBJECT_TYPE,EPOCH,MEAN_MOTION,ECCENTRICITY,INCLINATION,RA_OF_ASC_NODE,ARG_OF_PERICENTER,MEAN_ANOMALY,BSTAR,MEAN_MOTION_DOT,MEAN_MOTION_DDOT,TLE_LINE0,TLE_LINE1,TLE_LINE2,SEMIMAJOR_AXIS,PERIOD,APOGEE,PERIGEE,DECAYED
51856.0,STARLINK-3568,PAYLOAD,2022-08-23 22:00:01,15.08823792,0.0001781999999999,53.2164,67.0964,74.1332,312.7962,0.0015850999999999,0.00025018,0.0,0 STARLINK-3568,1 51856U 22022E   22235.91668981  .00025018  00000-0  15851-2 0  9993,2 51856  53.2164  67.0964 0001782  74.1332 312.7962 15.08823792  1307,6917.93,95.439,541.028,538.562,0.0
51856.0,STARLINK-3568,PAYLOAD,2022-08-24 14:00:01,15.08852397,0.0001749,53.2162,64.0997,82.1083,327.9387,-0.00039391,-6.554e-05,0.0,0 STARLINK-3568,1 51856U 22022E   22236.58334491 -.00006554  00000-0 -39391-3 0  9995,2 51856  53.2162  64.0997 0001749  82.1083 327.9387 15.08852397  1305,6917.842,95.437,540.9169999999998,538.498,0.0
51856.0,STARLINK-3568,PAYLOAD,2022-08-24 22:00:00,15.08828056,0.0001783,53.216,62.6072,74.6703,346.9883,0.0020829,0.00033006,0.0,0 STARLINK-3568,1 51856U 22022E   22236.91667824  .00033006  00000-0  20829-2 0  9996,2 51856  53.2160  62.6072 0001783  74.6703 346.9883 15.08828056 27882,6917.917,95.438,541.015,538.548,0.0
51856.0,STARLINK-3568,PAYLOAD,2022-08-25 14:00:01,15.08834136,0.0001664,53.2159,59.611,81.1621,3.6621,-0.00090543,-0.00014667,0.0,0 STARLINK-3568,1 51856U 22022E   22237.58334491 -.00014667  00000-0 -90543-3 0  9996,2 51856  53.2159  59.6110 0001664  81.1621   3.6621 15.08834136 27983,6917.898,95.438,540.914,538.612,0.0
51856.0,STARLINK-3568,PAYLOAD,2022-08-25 22:00:00,15.0880503,0.000168,53.2159,58.1177,72.8474,23.5666,0.0025864,0.00041075,0.0,0 STARLINK-3568,1 51856U 22022E   22237.91667824  .00041075  00000-0  25864-2 0  9996,2 51856  53.2159  58.1177 0001680  72.8474  23.5666 15.08805030  1300,6917.986999999999,95.44,541.015,538.69,0.0
51856.0,STARLINK-3568,PAYLOAD,2022-08-26 14:00:01,15.08847227,0.0001684,53.2162,55.1231,80.1638,39.4626,-0.0010981,-0.00017725,0.0,0 STARLINK-3568,1 51856U 22022E   22238.58335648 -.00017725  00000-0 -10981-2 0  9997,2 51856  53.2162  55.1231 0001684  80.1638  39.4626 15.08847227 28136,6917.858,95.437,540.888,538.558,0.0
51856.0,STARLINK-3568,PAYLOAD,2022-08-26 22:00:00,15.08813737,0.0001705,53.2163,53.6282,71.8825,59.284,0.0029876,0.00047547,0.0,0 STARLINK-3568,1 51856U 22022E   22238.91667824  .00047547  00000-0  29876-2 0  9994,2 51856  53.2163  53.6282 0001705  71.8825  59.2840 15.08813737  1302,6917.9609999999975,95.439,541.005,538.646,0.0
51856.0,STARLINK-3568,PAYLOAD,2022-08-27 14:00:01,15.08860831,0.0001696,53.2168,50.6337,79.5768,74.7683,-0.0012892,-0.00020759,0.0,0 STARLINK-3568,1 51856U 22022E   22239.58334491 -.00020759  00000-0 -12892-2 0  9997,2 51856  53.2168  50.6337 0001696  79.5768  74.7683 15.08860831  1309,6917.816999999999,95.436,540.855,538.508,0.0
51856.0,STARLINK-3568,PAYLOAD,2022-08-27 22:00:00,15.08829268,0.0001698,53.2168,49.1387,71.1938,94.7702,0.0028284,0.00045001,0.0,0 STARLINK-3568,1 51856U 22022E   22239.91667824  .00045001  00000-0  28284-2 0  9990,2 51856  53.2168  49.1387 0001698  71.1938  94.7702 15.08829268  1309,6917.913000000001,95.438,540.953,538.604,0.0
51856.0,STARLINK-3568,PAYLOAD,2022-08-28 14:00:01,15.08850297,0.0001551999999999,53.2174,46.1445,78.8155,110.3489,-0.0012863,-0.00020707,0.0,0 STARLINK-3568,1 51856U 22022E   22240.58334491 -.00020707  00000-0 -12863-2 0  9990,2 51856  53.2174  46.1445 0001552  78.8155 110.3489 15.08850297  1305,6917.849,95.437,540.788,538.64,0.0
51856.0,STARLINK-3568,PAYLOAD,2022-08-28 22:00:00,15.08817598,0.0001564999999999,53.2172,44.6493,70.3333,130.435,0.003159,0.00050316,0.0,0 STARLINK-3568,1 51856U 22022E   22240.91667824  .00050316  00000-0  31590-2 0  9991,2 51856  53.2172  44.6493 0001565  70.3333 130.4350 15.08817598  1305,6917.949000000001,95.439,540.8969999999998,538.731,0.0
51856.0,STARLINK-3568,PAYLOAD,2022-08-29 14:00:01,15.08841623,0.0001389,53.2177,41.6555,78.7972,145.1531,-0.0019339,-0.00030935,0.0,0 STARLINK-3568,1 51856U 22022E   22241.58334491 -.00030935  00000-0 -19339-2 0  9990,2 51856  53.2177  41.6555 0001389  78.7972 145.1531 15.08841623  1301,6917.875,95.437,540.701,538.78,0.0
51856.0,STARLINK-3568,PAYLOAD,2022-08-29 22:00:00,15.08806378,0.0001406999999999,53.2174,40.1602,70.005,165.5327,0.0026910999999999,0.00042761,0.0,0 STARLINK-3568,1 51856U 22022E   22241.91667824  .00042761  00000-0  26911-2 0  9998,2 51856  53.2174  40.1602 0001407  70.0050 165.5327 15.08806378  1305,6917.983,95.44,540.822,538.875,0.0
51856.0,STARLINK-3568,PAYLOAD,2022-08-30 06:00:00,15.08813456,0.0001305,53.2175,38.6622,80.0263,167.0932,0.0020663,0.00032726,0.0,0 STARLINK-3568,1 51856U 22022E   22242.25001157  .00032726  00000-0  20663-2 0  9995,2 51856  53.2175  38.6622 0001305  80.0263 167.0932 15.08813456 28688,6917.962,95.439,540.729,538.924,0.0
51856.0,STARLINK-3568,PAYLOAD,2022-08-30 14:00:01,15.08844617,0.0001302,53.2176,37.1669,85.0247,173.5981,-0.0014545,-0.00023364,0.0,0 STARLINK-3568,1 51856U 22022E   22242.58334491 -.00023364  00000-0 -14545-2 0  9993,2 51856  53.2176  37.1669 0001302  85.0247 173.5981 15.08844617 28733,6917.866,95.437,540.632,538.831,0.0
51856.0,STARLINK-3568,PAYLOAD,2022-08-30 22:00:00,15.08819487,0.0001289,53.2172,35.6715,76.1246,194.0907,0.0022174,0.00035158,0.0,0 STARLINK-3568,1 51856U 22022E   22242.91667824  .00035158  00000-0  22174-2 0  9998,2 51856  53.2172  35.6715 0001289  76.1246 194.0907 15.08819487  1305,6917.943,95.439,540.7,538.9159999999998,0.0
51856.0,STARLINK-3568,PAYLOAD,2022-08-31 14:00:01,15.08857956,0.0001288,53.2173,32.6782,84.4688,208.9208,-0.0014585,-0.00023436,0.0,0 STARLINK-3568,1 51856U 22022E   22243.58334491 -.00023436  00000-0 -14585-2 0  9998,2 51856  53.2173  32.6782 0001288  84.4688 208.9208 15.08857956  1300,6917.826,95.436,540.582,538.799,0.0
51856.0,STARLINK-3568,PAYLOAD,2022-08-31 22:00:00,15.0883774,0.0001262999999999,53.217,31.1826,76.0668,228.9286,0.0016658,0.00026321,0.0,0 STARLINK-3568,1 51856U 22022E   22243.91667824  .00026321  00000-0  16658-2 0  9991,2 51856  53.2170  31.1826 0001263  76.0668 228.9286 15.08837740 28933,6917.887,95.438,540.626,538.879,0.0
51856.0,STARLINK-3568,PAYLOAD,2022-09-01 14:00:01,15.08883934,0.0001233,53.2171,28.1892,82.3294,245.9396,-0.003906,-0.00061991,0.0,0 STARLINK-3568,1 51856U 22022E   22244.58335648 -.00061991  00000-0 -39060-2 0  9997,2 51856  53.2171  28.1892 0001233  82.3294 245.9396 15.08883934  1304,6917.746,95.435,540.464,538.758,0.0
51856.0,STARLINK-3568,PAYLOAD,2022-09-01 22:00:00,15.08831499,0.0001141,53.2169,26.6935,72.207,267.622,0.0012407,0.00019508,0.0,0 STARLINK-3568,1 51856U 22022E   22244.91667824  .00019508  00000-0  12407-2 0  9999,2 51856  53.2169  26.6935 0001141  72.2070 267.6220 15.08831499  1306,6917.906,95.438,540.561,538.982,0.0
51856.0,STARLINK-3568,PAYLOAD,2022-09-02 06:00:00,15.088167000000002,0.0001103,53.2171,25.1955,84.2412,267.189,0.0031739,0.00050555,0.0,0 STARLINK-3568,1 51856U 22022E   22245.25001157  .00050555  00000-0  31739-2 0  9994,2 51856  53.2171  25.1955 0001103  84.2412 267.1890 15.08816700 29133,6917.9519999999975,95.439,540.58,539.054,0.0
51856.0,STARLINK-3568,PAYLOAD,2022-09-02 14:00:01,15.08866858,0.0001213,53.2172,23.7003,78.1716,284.8429,-0.002671,-0.00042576,0.0,0 STARLINK-3568,1 51856U 22022E   22245.58334491 -.00042576  00000-0 -26710-2 0  9999,2 51856  53.2172  23.7003 0001213  78.1716 284.8429 15.08866858  1305,6917.7980000000025,95.436,540.502,538.8240000000002,0.0
51856.0,STARLINK-3568,PAYLOAD,2022-09-02 22:00:01,15.08836359,0.0001247,53.2171,22.2043,70.6847,304.0044,-0.00024496,-4.184e-05,0.0,0 STARLINK-3568,1 51856U 22022E   22245.91668981 -.00004184  00000-0 -24496-3 0  9993,2 51856  53.2171  22.2043 0001247  70.6847 304.0044 15.08836359 29245,6917.892,95.438,540.619,538.894,0.0
51856.0,STARLINK-3568,PAYLOAD,2022-09-03 14:00:01,15.08851014,0.000133,53.2175,19.2113,75.7384,322.0601,-0.00147,-0.00023614,0.0,0 STARLINK-3568,1 51856U 22022E   22246.58334491 -.00023614  00000-0 -14700-2 0  9998,2 51856  53.2175  19.2113 0001330  75.7384 322.0601 15.08851014  1309,6917.847,95.437,540.632,538.7919999999998,0.0
51856.0,STARLINK-3568,PAYLOAD,2022-09-03 22:00:00,15.08861019,0.0001331999999999,53.2174,17.7151,68.477,340.9255,-0.00059141,-9.693e-05,0.0,0 STARLINK-3568,1 51856U 22022E   22246.91667824 -.00009693  00000-0 -59141-3 0  9994,2 51856  53.2174  17.7151 0001332  68.4770 340.9255 15.08861019 29392,6917.816,95.436,540.6030000000002,538.76,0.0
51856.0,STARLINK-3568,PAYLOAD,2022-09-04 14:00:01,15.08862997,0.0001418,53.2178,14.722,73.8069,358.8794,-0.0017427,-0.00027933,0.0,0 STARLINK-3568,1 51856U 22022E   22247.58335648 -.00027933  00000-0 -17427-2 0  9991,2 51856  53.2178  14.7220 0001418  73.8069 358.8794 15.08862997  1309,6917.81,95.436,540.656,538.694,0.0
51856.0,STARLINK-3568,PAYLOAD,2022-09-04 20:00:01,15.08854353,0.0001381,53.2178,13.6003,67.4752,283.8675,-0.00053257,-8.757e-05,0.0,0 STARLINK-3568,1 51856U 22022E   22247.83334491 -.00008757  00000-0 -53257-3 0  9999,2 51856  53.2178  13.6003 0001381  67.4752 283.8675 15.08854353  1305,6917.837,95.437,540.6569999999998,538.746,0.0
51856.0,STARLINK-3568,PAYLOAD,2022-09-05 06:00:00,15.0880556,0.0001305,53.218,11.7277,79.9124,15.9535,0.0036229999999999,0.0005779,0.0,0 STARLINK-3568,1 51856U 22022E   22248.25001157  .00057790  00000-0  36230-2 0  9996,2 51856  53.2180  11.7277 0001305  79.9124  15.9535 15.08805560 29593,6917.986,95.44,540.753,538.948,0.0
51856.0,STARLINK-3568,PAYLOAD,2022-09-05 14:00:01,15.08852797,0.0001391,53.218,10.2329,72.9646,34.4768,-0.00135,-0.00021716,0.0,0 STARLINK-3568,1 51856U 22022E   22248.58334491 -.00021716  00000-0 -13500-2 0  9998,2 51856  53.2180  10.2329 0001391  72.9646  34.4768 15.08852797  1309,6917.840999999999,95.437,540.669,538.744,0.0
